start=new Date('2022-09-11T00:00:00.000Z').valueOf();
sats=[{"MEAN_MOTION_DDOT":"0.0000000000000","GP_ID":"212266864","ARG_OF_PERICENTER":"61.2361","LAUNCH_DATE":"2020-08-07","REF_FRAME":"TEME","TLE_LINE2":"2 46048  53.0541  84.2466 0000827  61.2361 298.8711 15.06360817116706","TIME_SYSTEM":"UTC","CLASSIFICATION_TYPE":"U","SITE":"AFETR","OBJECT_ID":"2020-055X","ELEMENT_SET_NO":"999","APOAPSIS":"547.906","DECAY_DATE":null,"OBJECT_TYPE":"PAYLOAD","MEAN_MOTION_DOT":"-0.00004175","INCLINATION":"53.0541","EPHEMERIS_TYPE":"0","ECCENTRICITY":"0.00008270","RCS_SIZE":"LARGE","MEAN_ELEMENT_THEORY":"SGP4","EPOCH":"2022-09-10T19:35:16.585152","SEMIMAJOR_AXIS":"6925.469","FILE":"3567798","PERIAPSIS":"546.761","MEAN_MOTION":"15.06360817","COUNTRY_CODE":"US","MEAN_ANOMALY":"298.8711","OBJECT_NAME":"STARLINK-1527","RA_OF_ASC_NODE":"84.2466","NORAD_CAT_ID":"46048","TLE_LINE1":"1 46048U 20055X   22253.81616418 -.00004175  00000-0 -26185-3 0  9997","REV_AT_EPOCH":"11670","CENTER_NAME":"EARTH","PERIOD":"95.595","BSTAR":"-0.00026185000000"},{"MEAN_MOTION":"15.06400974","OBJECT_NAME":"STARLINK-1530","RA_OF_ASC_NODE":"84.5611","COUNTRY_CODE":"US","MEAN_ANOMALY":"274.2718","CENTER_NAME":"EARTH","TLE_LINE1":"1 46049U 20055Y   22253.74610001  .00000115  00000-0  26611-4 0  9995","REV_AT_EPOCH":"11672","PERIOD":"95.592","BSTAR":"0.00002661100000","NORAD_CAT_ID":"46049","ECCENTRICITY":"0.00012190","RCS_SIZE":"LARGE","MEAN_ELEMENT_THEORY":"SGP4","EPHEMERIS_TYPE":"0","FILE":"3567798","PERIAPSIS":"546.366","SEMIMAJOR_AXIS":"6925.346","EPOCH":"2022-09-10T17:54:23.040864","DECAY_DATE":null,"APOAPSIS":"548.055","ELEMENT_SET_NO":"999","INCLINATION":"53.0545","MEAN_MOTION_DOT":"0.00000115","OBJECT_TYPE":"PAYLOAD","ARG_OF_PERICENTER":"85.8410","GP_ID":"212267115","MEAN_MOTION_DDOT":"0.0000000000000","LAUNCH_DATE":"2020-08-07","CLASSIFICATION_TYPE":"U","SITE":"AFETR","OBJECT_ID":"2020-055Y","TLE_LINE2":"2 46049  53.0545  84.5611 0001219  85.8410 274.2718 15.06400974116725","TIME_SYSTEM":"UTC","REF_FRAME":"TEME"},{"LAUNCH_DATE":"2020-08-07","MEAN_MOTION_DDOT":"0.0000000000000","GP_ID":"212265864","ARG_OF_PERICENTER":"73.7109","OBJECT_ID":"2020-055AA","SITE":"AFETR","CLASSIFICATION_TYPE":"U","REF_FRAME":"TEME","TLE_LINE2":"2 46051  53.0541  84.0884 0001448  73.7109 286.4039 15.06401388116749","TIME_SYSTEM":"UTC","DECAY_DATE":null,"ELEMENT_SET_NO":"999","APOAPSIS":"548.212","MEAN_MOTION_DOT":"0.00001710","INCLINATION":"53.0541","OBJECT_TYPE":"PAYLOAD","RCS_SIZE":"LARGE","MEAN_ELEMENT_THEORY":"SGP4","ECCENTRICITY":"0.00014480","EPHEMERIS_TYPE":"0","PERIAPSIS":"546.207","FILE":"3567798","EPOCH":"2022-09-10T20:23:00.442752","SEMIMAJOR_AXIS":"6925.344","MEAN_ANOMALY":"286.4039","COUNTRY_CODE":"US","OBJECT_NAME":"STARLINK-1540","RA_OF_ASC_NODE":"84.0884","MEAN_MOTION":"15.06401388","BSTAR":"0.00013364000000","PERIOD":"95.592","TLE_LINE1":"1 46051U 20055AA  22253.84931068  .00001710  00000-0  13364-3 0  9990","REV_AT_EPOCH":"11674","CENTER_NAME":"EARTH","NORAD_CAT_ID":"46051"},{"MEAN_MOTION_DOT":"0.00000903","INCLINATION":"53.0564","OBJECT_TYPE":"PAYLOAD","DECAY_DATE":null,"ELEMENT_SET_NO":"999","APOAPSIS":"548.091","SITE":"AFETR","OBJECT_ID":"2020-055AB","CLASSIFICATION_TYPE":"U","REF_FRAME":"TEME","TLE_LINE2":"2 46052  53.0564  84.4506 0001248  88.8026 271.3106 15.06395747116696","TIME_SYSTEM":"UTC","LAUNCH_DATE":"2020-08-07","MEAN_MOTION_DDOT":"0.0000000000000","ARG_OF_PERICENTER":"88.8026","GP_ID":"212266114","PERIOD":"95.592","BSTAR":"0.00007950100000","TLE_LINE1":"1 46052U 20055AB  22253.76821737  .00000903  00000-0  79501-4 0  9992","REV_AT_EPOCH":"11669","CENTER_NAME":"EARTH","NORAD_CAT_ID":"46052","COUNTRY_CODE":"US","MEAN_ANOMALY":"271.3106","OBJECT_NAME":"STARLINK-1541","RA_OF_ASC_NODE":"84.4506","MEAN_MOTION":"15.06395747","PERIAPSIS":"546.362","FILE":"3567798","EPOCH":"2022-09-10T18:26:13.980768","SEMIMAJOR_AXIS":"6925.362","MEAN_ELEMENT_THEORY":"SGP4","RCS_SIZE":"LARGE","ECCENTRICITY":"0.00012480","EPHEMERIS_TYPE":"0"},{"NORAD_CAT_ID":"46053","PERIOD":"95.593","BSTAR":"0.00004081400000","REV_AT_EPOCH":"11673","TLE_LINE1":"1 46053U 20055AC  22253.83825530  .00000326  00000-0  40814-4 0  9990","CENTER_NAME":"EARTH","COUNTRY_CODE":"US","MEAN_ANOMALY":"264.6070","RA_OF_ASC_NODE":"84.1486","OBJECT_NAME":"STARLINK-1543","MEAN_MOTION":"15.06392828","EPOCH":"2022-09-10T20:07:05.257920","SEMIMAJOR_AXIS":"6925.371","PERIAPSIS":"546.306","FILE":"3567798","EPHEMERIS_TYPE":"0","RCS_SIZE":"LARGE","MEAN_ELEMENT_THEORY":"SGP4","ECCENTRICITY":"0.00013420","OBJECT_TYPE":"PAYLOAD","MEAN_MOTION_DOT":"0.00000326","INCLINATION":"53.0568","ELEMENT_SET_NO":"999","APOAPSIS":"548.165","DECAY_DATE":null,"REF_FRAME":"TEME","TLE_LINE2":"2 46053  53.0568  84.1486 0001342  95.5072 264.6070 15.06392828116733","TIME_SYSTEM":"UTC","OBJECT_ID":"2020-055AC","SITE":"AFETR","CLASSIFICATION_TYPE":"U","LAUNCH_DATE":"2020-08-07","MEAN_MOTION_DDOT":"0.0000000000000","ARG_OF_PERICENTER":"95.5072","GP_ID":"212267364"},{"OBJECT_TYPE":"PAYLOAD","MEAN_MOTION_DOT":"-0.00000091","INCLINATION":"53.0568","ELEMENT_SET_NO":"999","APOAPSIS":"548.235","DECAY_DATE":null,"REF_FRAME":"TEME","TLE_LINE2":"2 46054  53.0568  84.1186 0001474 103.8640 256.2513 15.06399673116735","TIME_SYSTEM":"UTC","CLASSIFICATION_TYPE":"U","OBJECT_ID":"2020-055AD","SITE":"AFETR","MEAN_MOTION_DDOT":"0.0000000000000","GP_ID":"212267614","ARG_OF_PERICENTER":"103.8640","LAUNCH_DATE":"2020-08-07","NORAD_CAT_ID":"46054","TLE_LINE1":"1 46054U 20055AD  22253.84563264 -.00000091  00000-0  12767-4 0  9991","REV_AT_EPOCH":"11673","CENTER_NAME":"EARTH","PERIOD":"95.592","BSTAR":"0.00001276700000","MEAN_MOTION":"15.06399673","COUNTRY_CODE":"US","MEAN_ANOMALY":"256.2513","RA_OF_ASC_NODE":"84.1186","OBJECT_NAME":"STARLINK-1548","EPOCH":"2022-09-10T20:17:42.660096","SEMIMAJOR_AXIS":"6925.350","FILE":"3567798","PERIAPSIS":"546.194","EPHEMERIS_TYPE":"0","ECCENTRICITY":"0.00014740","MEAN_ELEMENT_THEORY":"SGP4","RCS_SIZE":"LARGE"},{"FILE":"3567798","PERIAPSIS":"546.223","EPOCH":"2022-09-10T18:20:55.919040","SEMIMAJOR_AXIS":"6925.339","ECCENTRICITY":"0.00014170","RCS_SIZE":"LARGE","MEAN_ELEMENT_THEORY":"SGP4","EPHEMERIS_TYPE":"0","REV_AT_EPOCH":"11672","TLE_LINE1":"1 46055U 20055AE  22253.76453610 -.00000045  00000-0  15870-4 0  9993","CENTER_NAME":"EARTH","PERIOD":"95.592","BSTAR":"0.00001587000000","NORAD_CAT_ID":"46055","MEAN_MOTION":"15.06403071","MEAN_ANOMALY":"271.6725","COUNTRY_CODE":"US","OBJECT_NAME":"STARLINK-1554","RA_OF_ASC_NODE":"84.4629","CLASSIFICATION_TYPE":"U","OBJECT_ID":"2020-055AE","SITE":"AFETR","REF_FRAME":"TEME","TLE_LINE2":"2 46055  53.0532  84.4629 0001417  88.4427 271.6725 15.06403071116723","TIME_SYSTEM":"UTC","MEAN_MOTION_DDOT":"0.0000000000000","GP_ID":"212266364","ARG_OF_PERICENTER":"88.4427","LAUNCH_DATE":"2020-08-07","MEAN_MOTION_DOT":"-0.00000045","INCLINATION":"53.0532","OBJECT_TYPE":"PAYLOAD","DECAY_DATE":null,"ELEMENT_SET_NO":"999","APOAPSIS":"548.185"},{"OBJECT_ID":"2020-055AF","SITE":"AFETR","CLASSIFICATION_TYPE":"U","REF_FRAME":"TEME","TLE_LINE2":"2 46056  53.0561  84.0704 0002169  52.2876 307.8309 15.06393700116747","TIME_SYSTEM":"UTC","LAUNCH_DATE":"2020-08-07","MEAN_MOTION_DDOT":"0.0000000000000","GP_ID":"212266614","ARG_OF_PERICENTER":"52.2876","MEAN_MOTION_DOT":"-0.00001281","INCLINATION":"53.0561","OBJECT_TYPE":"PAYLOAD","DECAY_DATE":null,"ELEMENT_SET_NO":"999","APOAPSIS":"548.735","PERIAPSIS":"545.731","FILE":"3567798","EPOCH":"2022-09-10T20:26:58.418592","SEMIMAJOR_AXIS":"6925.368","MEAN_ELEMENT_THEORY":"SGP4","RCS_SIZE":"LARGE","ECCENTRICITY":"0.00021690","EPHEMERIS_TYPE":"0","PERIOD":"95.593","BSTAR":"-0.00006712300000","REV_AT_EPOCH":"11674","TLE_LINE1":"1 46056U 20055AF  22253.85206503 -.00001281  00000-0 -67123-4 0  9993","CENTER_NAME":"EARTH","NORAD_CAT_ID":"46056","COUNTRY_CODE":"US","MEAN_ANOMALY":"307.8309","OBJECT_NAME":"STARLINK-1561","RA_OF_ASC_NODE":"84.0704","MEAN_MOTION":"15.06393700"},{"NORAD_CAT_ID":"46058","CENTER_NAME":"EARTH","REV_AT_EPOCH":"11672","TLE_LINE1":"1 46058U 20055AH  22253.79770961  .00000470  00000-0  50419-4 0  9999","PERIOD":"95.592","BSTAR":"0.00005041900000","MEAN_MOTION":"15.06399521","RA_OF_ASC_NODE":"84.3159","OBJECT_NAME":"STARLINK-1564","COUNTRY_CODE":"US","MEAN_ANOMALY":"269.6652","SEMIMAJOR_AXIS":"6925.350","EPOCH":"2022-09-10T19:08:42.110304","FILE":"3567798","PERIAPSIS":"546.262","EPHEMERIS_TYPE":"0","ECCENTRICITY":"0.00013760","MEAN_ELEMENT_THEORY":"SGP4","RCS_SIZE":"LARGE","OBJECT_TYPE":"PAYLOAD","INCLINATION":"53.0557","MEAN_MOTION_DOT":"0.00000470","APOAPSIS":"548.168","ELEMENT_SET_NO":"999","DECAY_DATE":null,"TLE_LINE2":"2 46058  53.0557  84.3159 0001376  90.4495 269.6652 15.06399521116722","TIME_SYSTEM":"UTC","REF_FRAME":"TEME","CLASSIFICATION_TYPE":"U","SITE":"AFETR","OBJECT_ID":"2020-055AH","ARG_OF_PERICENTER":"90.4495","GP_ID":"212266865","MEAN_MOTION_DDOT":"0.0000000000000","LAUNCH_DATE":"2020-08-07"},{"SEMIMAJOR_AXIS":"6925.346","EPOCH":"2022-09-10T17:43:47.150688","FILE":"3567798","PERIAPSIS":"546.277","EPHEMERIS_TYPE":"0","ECCENTRICITY":"0.00013490","MEAN_ELEMENT_THEORY":"SGP4","RCS_SIZE":"LARGE","NORAD_CAT_ID":"46059","CENTER_NAME":"EARTH","REV_AT_EPOCH":"11667","TLE_LINE1":"1 46059U 20055AJ  22253.73874017 -.00000299  00000-0 -11599-5 0  9999","PERIOD":"95.592","BSTAR":"-0.00000115990000","MEAN_MOTION":"15.06400672","RA_OF_ASC_NODE":"84.5912","OBJECT_NAME":"STARLINK-1570","MEAN_ANOMALY":"273.8335","COUNTRY_CODE":"US","TIME_SYSTEM":"UTC","TLE_LINE2":"2 46059  53.0550  84.5912 0001349  86.2808 273.8335 15.06400672116675","REF_FRAME":"TEME","CLASSIFICATION_TYPE":"U","OBJECT_ID":"2020-055AJ","SITE":"AFETR","GP_ID":"212267116","ARG_OF_PERICENTER":"86.2808","MEAN_MOTION_DDOT":"0.0000000000000","LAUNCH_DATE":"2020-08-07","OBJECT_TYPE":"PAYLOAD","INCLINATION":"53.0550","MEAN_MOTION_DOT":"-0.00000299","APOAPSIS":"548.146","ELEMENT_SET_NO":"999","DECAY_DATE":null}];
